{"type": "FeatureCollection", "features": [ {"type": "Feature", "properties": {"norad_id": 66945, "name": "STARLINK-36110", "group": "last-30-days", "lat": -19.46469619663324, "lon": -125.20917221224292, "alt_km": 295.9124371085263, "timestamp": "2025-12-14T22:38:39.519828+00:00", "meta": {"OBJECT_NAME": "STARLINK-36110", "OBJECT_ID": "2025-286W", "EPOCH": "2025-12-14T06:00:02.999808", "MEAN_MOTION": 15.95317332, "ECCENTRICITY": 9.424e-05, "INCLINATION": 53.1568, "RA_OF_ASC_NODE": 42.9699, "ARG_OF_PERICENTER": 75.9427, "MEAN_ANOMALY": 105.7506, "EPHEMERIS_TYPE": 0, "CLASSIFICATION_TYPE": "U", "NORAD_CAT_ID": 66945, "ELEMENT_SET_NO": 999, "REV_AT_EPOCH": 223, "BSTAR": -0.0033577574, "MEAN_MOTION_DOT": -0.01356574, "MEAN_MOTION_DDOT": 0.00055039083}, "tle": {"line1": "1 66945U 25286W   25348.25003472 -.01356574  55039-3 -33578-2 0  9994", "line2": "2 66945  53.1568  42.9699 0000942  75.9427 105.7506 15.95317332  2238"}}, "geometry": {"type": "Point", "coordinates": [-125.20917221224292, -19.46469619663324]}}, {"type": "Feature", "properties": {"norad_id": 66946, "name": "STARLINK-36115", "group": "last-30-days", "lat": -20.814363955196605, "lon": -124.01865274857647, "alt_km": 295.83269081496564, "timestamp": "2025-12-14T22:38:39.519838+00:00", "meta": {"OBJECT_NAME": "STARLINK-36115", "OBJECT_ID": "2025-286X", "EPOCH": "2025-12-14T06:00:02.999808", "MEAN_MOTION": 15.95388459, "ECCENTRICITY": 9.254e-05, "INCLINATION": 53.1568, "RA_OF_ASC_NODE": 42.9665, "ARG_OF_PERICENTER": 76.9836, "MEAN_ANOMALY": 106.2898, "EPHEMERIS_TYPE": 0, "CLASSIFICATION_TYPE": "U", "NORAD_CAT_ID": 66946, "ELEMENT_SET_NO": 999, "REV_AT_EPOCH": 223, "BSTAR": -0.0033477918, "MEAN_MOTION_DOT": -0.01357734, "MEAN_MOTION_DDOT": 0.00055164689}, "tle": {"line1": "1 66946U 25286X   25348.25003472 -.01357734  55165-3 -33478-2 0  9993", "line2": "2 66946  53.1568  42.9665 0000925  76.9836 106.2898 15.95388459  2236"}}, "geometry": {"type": "Point", "coordinates": [-124.01865274857647, -20.814363955196605]}}, {"type": "Feature", "properties": {"norad_id": 66947, "name": "STARLINK-36089", "group": "last-30-days", "lat": -23.669125027889358, "lon": -121.39984612823766, "alt_km": 295.68902841313866, "timestamp": "2025-12-14T22:38:39.519848+00:00", "meta": {"OBJECT_NAME": "STARLINK-36089", "OBJECT_ID": "2025-286Y", "EPOCH": "2025-12-14T06:00:02.999808", "MEAN_MOTION": 15.95548656, "ECCENTRICITY": 9.566e-05, "INCLINATION": 53.1567, "RA_OF_ASC_NODE": 42.9597, "ARG_OF_PERICENTER": 78.6263, "MEAN_ANOMALY": 108.0175, "EPHEMERIS_TYPE": 0, "CLASSIFICATION_TYPE": "U", "NORAD_CAT_ID": 66947, "ELEMENT_SET_NO": 999, "REV_AT_EPOCH": 223, "BSTAR": -0.0033471588, "MEAN_MOTION_DOT": -0.01369144, "MEAN_MOTION_DDOT": 0.00056104536}, "tle": {"line1": "1 66947U 25286Y   25348.25003472 -.01369144  56105-3 -33472-2 0  9991", "line2": "2 66947  53.1567  42.9597 0000956  78.6263 108.0175 15.95548656  2232"}}, "geometry": {"type": "Point", "coordinates": [-121.39984612823766, -23.669125027889358]}}, {"type": "Feature", "properties": {"norad_id": 66948, "name": "STARLINK-36116", "group": "last-30-days", "lat": -22.446254928047633, "lon": -122.53964701292902, "alt_km": 295.6893319630535, "timestamp": "2025-12-14T22:38:39.519860+00:00", "meta": {"OBJECT_NAME": "STARLINK-36116", "OBJECT_ID": "2025-286Z", "EPOCH": "2025-12-14T06:00:02.999808", "MEAN_MOTION": 15.95477322, "ECCENTRICITY": 8.582e-05, "INCLINATION": 53.1568, "RA_OF_ASC_NODE": 42.9626, "ARG_OF_PERICENTER": 79.7903, "MEAN_ANOMALY": 105.4017, "EPHEMERIS_TYPE": 0, "CLASSIFICATION_TYPE": "U", "NORAD_CAT_ID": 66948, "ELEMENT_SET_NO": 999, "REV_AT_EPOCH": 223, "BSTAR": -0.0033352335, "MEAN_MOTION_DOT": -0.01359125, "MEAN_MOTION_DDOT": 0.00055317673}, "tle": {"line1": "1 66948U 25286Z   25348.25003472 -.01359125  55318-3 -33352-2 0  9992", "line2": "2 66948  53.1568  42.9626 0000858  79.7903 105.4017 15.95477322  2238"}}, "geometry": {"type": "Point", "coordinates": [-122.53964701292902, -22.446254928047633]}}, {"type": "Feature", "properties": {"norad_id": 66949, "name": "STARLINK-36096", "group": "last-30-days", "lat": -24.911051691211345, "lon": -120.21202436223616, "alt_km": 295.6318182153791, "timestamp": "2025-12-14T22:38:39.519870+00:00", "meta": {"OBJECT_NAME": "STARLINK-36096", "OBJECT_ID": "2025-286AA", "EPOCH": "2025-12-14T06:00:02.999808", "MEAN_MOTION": 15.95617517, "ECCENTRICITY": 9.244e-05, "INCLINATION": 53.1568, "RA_OF_ASC_NODE": 42.9566, "ARG_OF_PERICENTER": 77.5159, "MEAN_ANOMALY": 110.6217, "EPHEMERIS_TYPE": 0, "CLASSIFICATION_TYPE": "U", "NORAD_CAT_ID": 66949, "ELEMENT_SET_NO": 999, "REV_AT_EPOCH": 223, "BSTAR": -0.0033561222, "MEAN_MOTION_DOT": -0.01377823, "MEAN_MOTION_DDOT": 0.00056794958}, "tle": {"line1": "1 66949U 25286AA  25348.25003472 -.01377823  56795-3 -33561-2 0  9990", "line2": "2 66949  53.1568  42.9566 0000924  77.5159 110.6217 15.95617517  2237"}}, "geometry": {"type": "Point", "coordinates": [-120.21202436223616, -24.911051691211345]}}, {"type": "Feature", "properties": {"norad_id": 66950, "name": "STARLINK-36111", "group": "last-30-days", "lat": -27.494811000538903, "lon": -117.62851228987863, "alt_km": 295.4482103500177, "timestamp": "2025-12-14T22:38:39.519880+00:00", "meta": {"OBJECT_NAME": "STARLINK-36111", "OBJECT_ID": "2025-286AB", "EPOCH": "2025-12-14T06:00:02.999808", "MEAN_MOTION": 15.95770213, "ECCENTRICITY": 9.546e-05, "INCLINATION": 53.1568, "RA_OF_ASC_NODE": 42.9502, "ARG_OF_PERICENTER": 80.3643, "MEAN_ANOMALY": 110.8873, "EPHEMERIS_TYPE": 0, "CLASSIFICATION_TYPE": "U", "NORAD_CAT_ID": 66950, "ELEMENT_SET_NO": 999, "REV_AT_EPOCH": 223, "BSTAR": -0.003354515, "MEAN_MOTION_DOT": -0.01388478, "MEAN_MOTION_DDOT": 0.00057688783}, "tle": {"line1": "1 66950U 25286AB  25348.25003472 -.01388478  57689-3 -33545-2 0  9995", "line2": "2 66950  53.1568  42.9502 0000954  80.3643 110.8873 15.95770213  2235"}}, "geometry": {"type": "Point", "coordinates": [-117.62851228987863, -27.494811000538903]}}, {"type": "Feature", "properties": {"norad_id": 66951, "name": "STARLINK-35999", "group": "last-30-days", "lat": -28.851670873420797, "lon": -116.20265213647758, "alt_km": 295.3159284317553, "timestamp": "2025-12-14T22:38:39.519891+00:00", "meta": {"OBJECT_NAME": "STARLINK-35999", "OBJECT_ID": "2025-286AC", "EPOCH": "2025-12-14T06:00:02.999808", "MEAN_MOTION": 15.95850281, "ECCENTRICITY": 9.342e-05, "INCLINATION": 53.1568, "RA_OF_ASC_NODE": 42.9466, "ARG_OF_PERICENTER": 83.2755, "MEAN_ANOMALY": 109.6382, "EPHEMERIS_TYPE": 0, "CLASSIFICATION_TYPE": "U", "NORAD_CAT_ID": 66951, "ELEMENT_SET_NO": 999, "REV_AT_EPOCH": 223, "BSTAR": -0.0033524726, "MEAN_MOTION_DOT": -0.01393608, "MEAN_MOTION_DDOT": 0.00058125971}, "tle": {"line1": "1 66951U 25286AC  25348.25003472 -.01393608  58126-3 -33525-2 0  9992", "line2": "2 66951  53.1568  42.9466 0000934  83.2755 109.6382 15.95850281  2234"}}, "geometry": {"type": "Point", "coordinates": [-116.20265213647758, -28.851670873420797]}}, {"type": "Feature", "properties": {"norad_id": 66952, "name": "STARLINK-36122", "group": "last-30-days", "lat": -26.23790279460627, "lon": -118.90549147645184, "alt_km": 295.52588878936785, "timestamp": "2025-12-14T22:38:39.519905+00:00", "meta": {"OBJECT_NAME": "STARLINK-36122", "OBJECT_ID": "2025-286AD", "EPOCH": "2025-12-14T06:00:02.999808", "MEAN_MOTION": 15.95696977, "ECCENTRICITY": 9.453e-05, "INCLINATION": 53.1569, "RA_OF_ASC_NODE": 42.9534, "ARG_OF_PERICENTER": 80.2363, "MEAN_ANOMALY": 109.4887, "EPHEMERIS_TYPE": 0, "CLASSIFICATION_TYPE": "U", "NORAD_CAT_ID": 66952, "ELEMENT_SET_NO": 999, "REV_AT_EPOCH": 223, "BSTAR": -0.003353588, "MEAN_MOTION_DOT": -0.01382664, "MEAN_MOTION_DDOT": 0.0005720593}, "tle": {"line1": "1 66952U 25286AD  25348.25003472 -.01382664  57206-3 -33536-2 0  9993", "line2": "2 66952  53.1569  42.9534 0000945  80.2363 109.4887 15.95696977  2234"}}, "geometry": {"type": "Point", "coordinates": [-118.90549147645184, -26.23790279460627]}}, {"type": "Feature", "properties": {"norad_id": 66953, "name": "HULIANWANG DIGUI-114", "group": "last-30-days", "lat": -63.497742979211424, "lon": 172.4095318920376, "alt_km": 1007.0923179862866, "timestamp": "2025-12-14T22:38:39.519916+00:00", "meta": {"OBJECT_NAME": "HULIANWANG DIGUI-114", "OBJECT_ID": "2025-287A", "EPOCH": "2025-12-11T05:43:48.442368", "MEAN_MOTION": 13.68688345, "ECCENTRICITY": 0.00085506, "INCLINATION": 86.4966, "RA_OF_ASC_NODE": 346.7027, "ARG_OF_PERICENTER": 209.4482, "MEAN_ANOMALY": 150.6197, "EPHEMERIS_TYPE": 0, "CLASSIFICATION_TYPE": "U", "NORAD_CAT_ID": 66953, "ELEMENT_SET_NO": 999, "REV_AT_EPOCH": 32, "BSTAR": 1.3583638e-05, "MEAN_MOTION_DOT": 2.8e-07, "MEAN_MOTION_DDOT": 0}, "tle": {"line1": "1 66953U 25287A   25345.23875512  .00000028  00000+0  13584-4 0  9999", "line2": "2 66953  86.4966 346.7027 0008550 209.4482 150.6197 13.68688345   322"}}, "geometry": {"type": "Point", "coordinates": [172.4095318920376, -63.497742979211424]}}, {"type": "Feature", "properties": {"norad_id": 66954, "name": "HULIANWANG DIGUI-115", "group": "last-30-days", "lat": -65.65394900181713, "lon": 173.13473909697112, "alt_km": 1006.9814278587464, "timestamp": "2025-12-14T22:38:39.519926+00:00", "meta": {"OBJECT_NAME": "HULIANWANG DIGUI-115", "OBJECT_ID": "2025-287B", "EPOCH": "2025-12-14T05:39:26.202816", "MEAN_MOTION": 13.68791762, "ECCENTRICITY": 0.00086673, "INCLINATION": 86.4973, "RA_OF_ASC_NODE": 345.6134, "ARG_OF_PERICENTER": 199.3224, "MEAN_ANOMALY": 160.7608, "EPHEMERIS_TYPE": 0, "CLASSIFICATION_TYPE": "U", "NORAD_CAT_ID": 66954, "ELEMENT_SET_NO": 999, "REV_AT_EPOCH": 73, "BSTAR": 2.6663231e-05, "MEAN_MOTION_DOT": 3.9e-07, "MEAN_MOTION_DDOT": 0}, "tle": {"line1": "1 66954U 25287B   25348.23571994  .00000039  00000+0  26663-4 0  9994", "line2": "2 66954  86.4973 345.6134 0008667 199.3224 160.7608 13.68791762   730"}}, "geometry": {"type": "Point", "coordinates": [173.13473909697112, -65.65394900181713]}}]}